[{"OBJECT_NAME":"IRIDIUM 33 DEB","OBJECT_ID":"1997-051MQ","EPOCH":"2026-03-28T11:02:18.415104","MEAN_MOTION":14.78795731,"ECCENTRICITY":0.00165557,"INCLINATION":86.3049,"RA_OF_ASC_NODE":265.5555,"ARG_OF_PERICENTER":178.4729,"MEAN_ANOMALY":211.1933,"EPHEMERIS_TYPE":0,"CLASSIFICATION_TYPE":"U","NORAD_CAT_ID":34870,"ELEMENT_SET_NO":999,"REV_AT_EPOCH":90472,"BSTAR":0.0015172276,"MEAN_MOTION_DOT":0.00011208,"MEAN_MOTION_DDOT":0},{"OBJECT_NAME":"IRIDIUM 33 DEB","OBJECT_ID":"1997-051MY","EPOCH":"2026-03-28T07:52:10.130592","MEAN_MOTION":14.67444458,"ECCENTRICITY":0.0024402,"INCLINATION":86.3238,"RA_OF_ASC_NODE":279.2819,"ARG_OF_PERICENTER":212.5116,"MEAN_ANOMALY":266.5254,"EPHEMERIS_TYPE":0,"CLASSIFICATION_TYPE":"U","NORAD_CAT_ID":34896,"ELEMENT_SET_NO":999,"REV_AT_EPOCH":89167,"BSTAR":0.0008456,"MEAN_MOTION_DOT":4.828e-5,"MEAN_MOTION_DDOT":0},{"OBJECT_NAME":"IRIDIUM 33 DEB","OBJECT_ID":"1997-051NF","EPOCH":"2026-03-28T15:43:43.702752","MEAN_MOTION":14.59905042,"ECCENTRICITY":0.0073191,"INCLINATION":86.1341,"RA_OF_ASC_NODE":318.9492,"ARG_OF_PERICENTER":298.7805,"MEAN_ANOMALY":115.194,"EPHEMERIS_TYPE":0,"CLASSIFICATION_TYPE":"U","NORAD_CAT_ID":34926,"ELEMENT_SET_NO":999,"REV_AT_EPOCH":87999,"BSTAR":0.0038784,"MEAN_MOTION_DOT":0.00019333,"MEAN_MOTION_DDOT":0},{"OBJECT_NAME":"IRIDIUM 33 DEB","OBJECT_ID":"1997-051NR","EPOCH":"2026-03-28T06:52:39.404352","MEAN_MOTION":14.42555627,"ECCENTRICITY":0.0019039,"INCLINATION":86.3749,"RA_OF_ASC_NODE":11.8342,"ARG_OF_PERICENTER":234.1759,"MEAN_ANOMALY":256.4113,"EPHEMERIS_TYPE":0,"CLASSIFICATION_TYPE":"U","NORAD_CAT_ID":34985,"ELEMENT_SET_NO":999,"REV_AT_EPOCH":88696,"BSTAR":0.00063358,"MEAN_MOTION_DOT":2.125e-5,"MEAN_MOTION_DDOT":0},{"OBJECT_NAME":"IRIDIUM 33 DEB","OBJECT_ID":"1997-051NX","EPOCH":"2026-03-28T14:59:21.287616","MEAN_MOTION":14.48185049,"ECCENTRICITY":0.00103122,"INCLINATION":86.3241,"RA_OF_ASC_NODE":322.7132,"ARG_OF_PERICENTER":92.9188,"MEAN_ANOMALY":267.3196,"EPHEMERIS_TYPE":0,"CLASSIFICATION_TYPE":"U","NORAD_CAT_ID":35051,"ELEMENT_SET_NO":999,"REV_AT_EPOCH":88528,"BSTAR":0.00051466096,"MEAN_MOTION_DOT":1.939e-5,"MEAN_MOTION_DDOT":0},{"OBJECT_NAME":"IRIDIUM 33 DEB","OBJECT_ID":"1997-051NY","EPOCH":"2026-03-27T09:42:08.305056","MEAN_MOTION":14.38648021,"ECCENTRICITY":0.0013619,"INCLINATION":86.334,"RA_OF_ASC_NODE":335.6274,"ARG_OF_PERICENTER":97.5976,"MEAN_ANOMALY":262.6769,"EPHEMERIS_TYPE":0,"CLASSIFICATION_TYPE":"U","NORAD_CAT_ID":35052,"ELEMENT_SET_NO":999,"REV_AT_EPOCH":88780,"BSTAR":0.0001592,"MEAN_MOTION_DOT":5.08e-6,"MEAN_MOTION_DDOT":0},{"OBJECT_NAME":"IRIDIUM 33 DEB","OBJECT_ID":"1997-051PF","EPOCH":"2026-03-28T00:58:07.217184","MEAN_MOTION":15.08052716,"ECCENTRICITY":0.00365031,"INCLINATION":86.2123,"RA_OF_ASC_NODE":1.282,"ARG_OF_PERICENTER":143.0814,"MEAN_ANOMALY":217.2946,"EPHEMERIS_TYPE":0,"CLASSIFICATION_TYPE":"U","NORAD_CAT_ID":35080,"ELEMENT_SET_NO":999,"REV_AT_EPOCH":71262,"BSTAR":0.0062189838,"MEAN_MOTION_DOT":0.00098428,"MEAN_MOTION_DDOT":0},{"OBJECT_NAME":"IRIDIUM 33 DEB","OBJECT_ID":"1997-051PM","EPOCH":"2026-03-27T13:10:51.743136","MEAN_MOTION":14.4569243,"ECCENTRICITY":0.0016298,"INCLINATION":86.3906,"RA_OF_ASC_NODE":18.0013,"ARG_OF_PERICENTER":148.0584,"MEAN_ANOMALY":212.161,"EPHEMERIS_TYPE":0,"CLASSIFICATION_TYPE":"U","NORAD_CAT_ID":35297,"ELEMENT_SET_NO":999,"REV_AT_EPOCH":71940,"BSTAR":0.00052628,"MEAN_MOTION_DOT":1.884e-5,"MEAN_MOTION_DDOT":0},{"OBJECT_NAME":"IRIDIUM 33 DEB","OBJECT_ID":"1997-051PP","EPOCH":"2026-03-27T11:28:21.324576","MEAN_MOTION":14.41820076,"ECCENTRICITY":0.005696,"INCLINATION":86.2913,"RA_OF_ASC_NODE":347.5684,"ARG_OF_PERICENTER":114.5526,"MEAN_ANOMALY":64.7598,"EPHEMERIS_TYPE":0,"CLASSIFICATION_TYPE":"U","NORAD_CAT_ID":35299,"ELEMENT_SET_NO":999,"REV_AT_EPOCH":87839,"BSTAR":0.0010819,"MEAN_MOTION_DOT":3.624e-5,"MEAN_MOTION_DDOT":0},{"OBJECT_NAME":"IRIDIUM 33 DEB","OBJECT_ID":"1997-051QA","EPOCH":"2026-03-27T09:56:52.933056","MEAN_MOTION":14.50368436,"ECCENTRICITY":0.0015474,"INCLINATION":86.36,"RA_OF_ASC_NODE":339.5317,"ARG_OF_PERICENTER":110.1635,"MEAN_ANOMALY":250.1236,"EPHEMERIS_TYPE":0,"CLASSIFICATION_TYPE":"U","NORAD_CAT_ID":35480,"ELEMENT_SET_NO":999,"REV_AT_EPOCH":88548,"BSTAR":0.00048798,"MEAN_MOTION_DOT":1.927e-5,"MEAN_MOTION_DDOT":0},{"OBJECT_NAME":"IRIDIUM 33 DEB","OBJECT_ID":"1997-051QE","EPOCH":"2026-03-17T21:15:20.355264","MEAN_MOTION":15.08193596,"ECCENTRICITY":0.00148401,"INCLINATION":86.3507,"RA_OF_ASC_NODE":307.8846,"ARG_OF_PERICENTER":135.1901,"MEAN_ANOMALY":225.0537,"EPHEMERIS_TYPE":0,"CLASSIFICATION_TYPE":"U","NORAD_CAT_ID":35484,"ELEMENT_SET_NO":999,"REV_AT_EPOCH":63445,"BSTAR":0.0016373111,"MEAN_MOTION_DOT":0.0002546,"MEAN_MOTION_DDOT":0},{"OBJECT_NAME":"IRIDIUM 33 DEB","OBJECT_ID":"1997-051QJ","EPOCH":"2026-03-27T10:23:30.177024","MEAN_MOTION":14.8567486,"ECCENTRICITY":0.0025923,"INCLINATION":86.3206,"RA_OF_ASC_NODE":252.4869,"ARG_OF_PERICENTER":32.1451,"MEAN_ANOMALY":328.1347,"EPHEMERIS_TYPE":0,"CLASSIFICATION_TYPE":"U","NORAD_CAT_ID":35488,"ELEMENT_SET_NO":999,"REV_AT_EPOCH":89819,"BSTAR":0.00093239,"MEAN_MOTION_DOT":8.159e-5,"MEAN_MOTION_DDOT":0},{"OBJECT_NAME":"IRIDIUM 33 DEB","OBJECT_ID":"1997-051QN","EPOCH":"2026-03-26T07:41:54.803616","MEAN_MOTION":14.8515875,"ECCENTRICITY":0.00090052,"INCLINATION":86.351,"RA_OF_ASC_NODE":298.3596,"ARG_OF_PERICENTER":162.7279,"MEAN_ANOMALY":197.4253,"EPHEMERIS_TYPE":0,"CLASSIFICATION_TYPE":"U","NORAD_CAT_ID":35616,"ELEMENT_SET_NO":999,"REV_AT_EPOCH":89110,"BSTAR":0.0012632579,"MEAN_MOTION_DOT":0.00010852,"MEAN_MOTION_DDOT":0},{"OBJECT_NAME":"IRIDIUM 33 DEB","OBJECT_ID":"1997-051QQ","EPOCH":"2026-03-27T21:14:53.845152","MEAN_MOTION":14.52793612,"ECCENTRICITY":0.00295289,"INCLINATION":86.3372,"RA_OF_ASC_NODE":307.5216,"ARG_OF_PERICENTER":28.3396,"MEAN_ANOMALY":331.9409,"EPHEMERIS_TYPE":0,"CLASSIFICATION_TYPE":"U","NORAD_CAT_ID":35618,"ELEMENT_SET_NO":999,"REV_AT_EPOCH":66920,"BSTAR":0.00035220423,"MEAN_MOTION_DOT":1.476e-5,"MEAN_MOTION_DDOT":0},{"OBJECT_NAME":"IRIDIUM 33 DEB","OBJECT_ID":"1997-051QS","EPOCH":"2026-03-25T11:48:28.754208","MEAN_MOTION":14.40889107,"ECCENTRICITY":0.01308688,"INCLINATION":86.3906,"RA_OF_ASC_NODE":174.0421,"ARG_OF_PERICENTER":277.6429,"MEAN_ANOMALY":80.9924,"EPHEMERIS_TYPE":0,"CLASSIFICATION_TYPE":"U","NORAD_CAT_ID":35620,"ELEMENT_SET_NO":999,"REV_AT_EPOCH":61444,"BSTAR":0.002166974,"MEAN_MOTION_DOT":7.713e-5,"MEAN_MOTION_DDOT":0},{"OBJECT_NAME":"IRIDIUM 33 DEB","OBJECT_ID":"1997-051QU","EPOCH":"2026-03-27T14:42:42.856128","MEAN_MOTION":15.15774507,"ECCENTRICITY":0.0008312,"INCLINATION":86.1931,"RA_OF_ASC_NODE":211.3812,"ARG_OF_PERICENTER":229.2394,"MEAN_ANOMALY":146.6954,"EPHEMERIS_TYPE":0,"CLASSIFICATION_TYPE":"U","NORAD_CAT_ID":35622,"ELEMENT_SET_NO":999,"REV_AT_EPOCH":88943,"BSTAR":0.0022796,"MEAN_MOTION_DOT":0.00043748,"MEAN_MOTION_DDOT":0}]
